<?xml version="1.0" encoding="UTF-8"?>
<osm version="0.6" generator="test">
  <!-- Tiny sample extract near downtown Jacksonville, FL.
       Used to validate the OSM import pipeline. -->
  <node id="10" lat="30.3322" lon="-81.6557"/>
  <node id="11" lat="30.3330" lon="-81.6557"/>
  <node id="12" lat="30.3330" lon="-81.6549"/>
  <node id="13" lat="30.3322" lon="-81.6549"/>
  <node id="14" lat="30.3326" lon="-81.6553">
    <tag k="amenity" v="cafe"/>
    <tag k="name" v="Test Cafe"/>
  </node>
  <node id="20" lat="30.3320" lon="-81.6560"/>
  <node id="21" lat="30.3332" lon="-81.6560"/>
  <node id="22" lat="30.3332" lon="-81.6545"/>
  <node id="23" lat="30.3320" lon="-81.6545"/>

  <way id="100">
    <nd ref="20"/>
    <nd ref="21"/>
    <tag k="highway" v="residential"/>
    <tag k="name" v="Sample Street"/>
  </way>

  <way id="101">
    <nd ref="10"/>
    <nd ref="11"/>
    <nd ref="12"/>
    <nd ref="13"/>
    <nd ref="10"/>
    <tag k="building" v="yes"/>
    <tag k="building:levels" v="4"/>
    <tag k="name" v="Sample Building"/>
  </way>

  <way id="102">
    <nd ref="23"/>
    <nd ref="22"/>
    <nd ref="21"/>
    <nd ref="20"/>
    <nd ref="23"/>
    <tag k="leisure" v="park"/>
    <tag k="name" v="Sample Park"/>
  </way>

  <way id="103">
    <nd ref="10"/>
    <nd ref="11"/>
    <nd ref="12"/>
    <nd ref="13"/>
    <nd ref="10"/>
    <tag k="natural" v="water"/>
    <tag k="name" v="Sample Pond"/>
  </way>
</osm>